OBJECT_NAME,OBJECT_ID,EPOCH,MEAN_MOTION,ECCENTRICITY,INCLINATION,RA_OF_ASC_NODE,ARG_OF_PERICENTER,MEAN_ANOMALY,EPHEMERIS_TYPE,CLASSIFICATION_TYPE,NORAD_CAT_ID,ELEMENT_SET_NO,REV_AT_EPOCH,BSTAR,MEAN_MOTION_DOT,MEAN_MOTION_DDOT
CUTE-1 (CO-55),2003-031E,2026-05-20T06:56:12.520320,14.24316564,.0008286,98.6744,149.1989,266.0889,93.9343,0,U,27844,999,18770,.95378E-4,.176E-5,0
CUBESAT XI-IV (CO-57),2003-031J,2026-05-20T11:23:06.198720,14.23604190,.0008236,98.6775,149.1168,286.8725,73.1550,0,U,27848,999,18743,.78169E-4,.134E-5,0
CUBESAT XI-V,2005-043F,2026-05-20T09:47:25.698912,14.72547895,.0012837,98.2955,295.4528,295.7094,64.2787,0,U,28895,999,9766,.13338E-3,.795E-5,0
CUTE-1.7+APD II (CO-65),2008-021C,2026-05-20T11:17:12.395040,15.09156147,.0010664,97.8273,121.3219,117.7293,242.5018,0,U,32785,999,98101,.19685E-3,.3061E-4,0
CANX-2,2008-021H,2026-05-20T04:10:17.376672,15.05385874,.00115506,97.8620,119.4156,132.9163,227.3034,0,U,32790,999,98059,.15006648E-3,.2089E-4,0
SEEDS II (CO-66),2008-021J,2026-05-20T10:41:53.830752,15.31697844,.0004684,97.7526,137.0429,69.5978,290.5765,0,U,32791,999,98304,.42104E-3,.12815E-3,0
SWISSCUBE,2009-051B,2026-05-20T11:01:02.872992,14.62420652,.0005721,98.4053,47.8632,308.0875,51.9810,0,U,35932,999,88510,.13348E-3,.626E-5,0
BEESAT-1,2009-051C,2026-05-20T10:53:59.070624,14.61668848,.000451,98.3982,47.5514,327.5835,32.5088,0,U,35933,999,88513,.11466E-3,.522E-5,0
ITUPSAT1,2009-051E,2026-05-20T05:09:58.605696,14.60392885,.0006931,98.4067,46.5303,335.9676,24.1199,0,U,35935,999,88465,.11097E-3,.488E-5,0
TISAT 1,2010-035E,2026-05-20T12:55:07.728960,15.30538753,.0002805,98.0706,84.6627,39.3668,320.7774,0,U,36799,999,86347,.47855E-3,.14056E-3,0
AEROCUBE 4.5A,2012-048K,2026-05-20T08:50:10.565376,15.79758875,.0018264,64.6286,127.3853,215.7880,144.2052,0,U,38767,999,36824,.74725E-3,.141666E-2,0
STRAND-1,2013-009E,2026-05-20T08:18:47.337408,14.37144794,.0007772,98.3916,321.2673,320.9184,39.1441,0,U,39090,999,69306,.65915E-4,.153E-5,0
BRITE-AUSTRIA,2013-009F,2026-05-20T10:00:24.028992,14.36529751,.0009475,98.3988,320.5412,329.2992,30.7639,0,U,39091,999,69306,.48685E-4,.1E-5,0
NEE-01 PEGASO,2013-018B,2026-05-20T07:53:49.184736,14.93503212,.0011377,98.1188,283.5678,253.7412,106.2555,0,U,39151,999,70654,.15395E-3,.156E-4,0
POPACS 2,2013-055E,2026-05-20T12:35:21.494112,14.90555413,.0418437,80.9910,175.8448,282.7737,72.7034,0,U,39269,999,65909,.16915E-3,.984E-4,0
POPACS 3,2013-055F,2026-05-20T08:26:34.910016,14.55421002,.055468,81.0017,259.3479,154.6433,208.3138,0,U,39270,999,63450,.28499E-3,.12003E-3,0
ZACUBE-1 (TSHEPISOSAT),2013-066B,2026-05-20T08:14:32.288064,15.00951329,.0040864,97.8122,102.5296,346.3629,13.6486,0,U,39417,999,67655,.23169E-3,.2941E-4,0
WNISAT-1,2013-066H,2026-05-20T10:01:10.195104,14.58022953,.0162175,97.7169,291.5501,319.7579,39.1706,0,U,39423,999,66268,.63193E-4,.296E-5,0
TRITON-1,2013-066M,2026-05-20T12:56:35.271168,14.81573079,.0089409,97.8266,50.9762,325.4883,34.0544,0,U,39427,999,66999,.15467E-3,.1243E-4,0
GOMX-1,2013-066Q,2026-05-20T12:55:40.535904,14.69336274,.012908,97.6495,342.7452,165.6472,194.8458,0,U,39430,999,66585,.19E-3,.1224E-4,0
CUBEBUG-2 (LO-74),2013-066AA,2026-05-20T07:53:10.664160,14.93518910,.005936,97.8896,89.1979,118.9844,241.7343,0,U,39440,999,67283,.23488E-3,.2498E-4,0
NEE-02 KRYSAOR,2013-066AB,2026-05-20T08:13:06.722688,14.86498349,.0066682,97.8886,79.7609,159.7585,200.6298,0,U,39441,999,67206,.12059E-3,.1052E-4,0
FUNCUBE-1 (AO-73),2013-066AE,2026-05-19T21:07:13.054944,15.09086227,.00348521,97.8266,110.7464,301.7800,58.0035,0,U,39444,999,67539,.33982096E-3,.5392E-4,0
UWE-3,2013-066AG,2026-05-19T20:57:05.279328,14.96754231,.00504162,97.8681,95.7656,55.1859,305.4090,0,U,39446,999,67334,.25518464E-3,.2931E-4,0
BRITE-CA1 (TORONTO),2014-033L,2026-05-20T07:35:18.041856,14.72634211,.0078725,97.9701,269.7647,7.1930,353.0388,0,U,40020,999,63811,.68905E-4,.407E-5,0
DUCHIFAT-1,2014-033M,2026-05-20T09:46:03.275040,15.59181343,.0006233,98.0489,195.7904,167.3565,192.7847,0,U,40021,999,65141,.7668E-3,.60331E-3,0
NANOSATC-BR1,2014-033Q,2026-05-20T11:50:01.385376,15.30482216,.0001661,98.0738,170.4463,274.4950,85.6099,0,U,40024,999,64974,.42436E-3,.12429E-3,0
QB50P1,2014-033R,2026-05-20T11:09:53.551296,15.17779881,.0007608,98.0975,149.6777,331.3081,28.7731,0,U,40025,999,64882,.26764E-3,.5334E-4,0
QB50P2,2014-033Y,2026-05-20T10:12:26.524800,15.14759681,.0005654,98.0754,135.5876,269.9397,90.1185,0,U,40032,999,64846,.23169E-3,.4223E-4,0
PERSEUS-M2,2014-033AD,2026-05-20T11:54:32.471424,14.95417546,.0013167,97.9968,90.4786,37.6463,322.5676,0,U,40037,999,64664,.93474E-4,.973E-5,0
