CUTE-1 (CO-55)          
1 27844U 03031E   26140.28903380  .00000176  00000+0  95378-4 0  9997
2 27844  98.6744 149.1989 0008286 266.0889  93.9343 14.24316564187709
CUBESAT XI-IV (CO-57)   
1 27848U 03031J   26140.47437730  .00000134  00000+0  78169-4 0  9996
2 27848  98.6775 149.1168 0008236 286.8725  73.1550 14.23604190187434
CUBESAT XI-V            
1 28895U 05043F   26140.40793633  .00000795  00000+0  13338-3 0  9993
2 28895  98.2955 295.4528 0012837 295.7094  64.2787 14.72547895 97668
CUTE-1.7+APD II (CO-65) 
1 32785U 08021C   26140.47028235  .00003061  00000+0  19685-3 0  9991
2 32785  97.8273 121.3219 0010664 117.7293 242.5018 15.09156147981019
CANX-2                  
1 32790U 08021H   26140.17381223  .00002089  00000+0  15007-3 0  9996
2 32790  97.8620 119.4156 0011550 132.9163 227.3034 15.05385874980597
SEEDS II (CO-66)        
1 32791U 08021J   26140.44576193  .00012815  00000+0  42104-3 0  9995
2 32791  97.7526 137.0429 0004684  69.5978 290.5765 15.31697844983048
SWISSCUBE               
1 35932U 09051B   26140.45906103  .00000626  00000+0  13348-3 0  9993
2 35932  98.4053  47.8632 0005721 308.0875  51.9810 14.62420652885107
BEESAT-1                
1 35933U 09051C   26140.45415591  .00000522  00000+0  11466-3 0  9994
2 35933  98.3982  47.5514 0004510 327.5835  32.5088 14.61668848885136
ITUPSAT1                
1 35935U 09051E   26140.21526164  .00000488  00000+0  11097-3 0  9990
2 35935  98.4067  46.5303 0006931 335.9676  24.1199 14.60392885884653
TISAT 1                 
1 36799U 10035E   26140.53828390  .00014056  00000+0  47855-3 0  9991
2 36799  98.0706  84.6627 0002805  39.3668 320.7774 15.30538753863477
AEROCUBE 4.5A           
1 38767U 12048K   26140.36817784  .00141666  00000+0  74725-3 0  9994
2 38767  64.6286 127.3853 0018264 215.7880 144.2052 15.79758875368249
STRAND-1                
1 39090U 13009E   26140.34638122  .00000153  00000+0  65915-4 0  9994
2 39090  98.3916 321.2673 0007772 320.9184  39.1441 14.37144794693063
BRITE-AUSTRIA           
1 39091U 13009F   26140.41694478  .00000100  00000+0  48685-4 0  9996
2 39091  98.3988 320.5412 0009475 329.2992  30.7639 14.36529751693062
NEE-01 PEGASO           
1 39151U 13018B   26140.32904149  .00001560  00000+0  15395-3 0  9994
2 39151  98.1188 283.5678 0011377 253.7412 106.2555 14.93503212706544
POPACS 2                
1 39269U 13055E   26140.52455433  .00009840  00000+0  16915-3 0  9992
2 39269  80.9910 175.8448 0418437 282.7737  72.7034 14.90555413659097
POPACS 3                
1 39270U 13055F   26140.35179294  .00012003  00000+0  28499-3 0  9998
2 39270  81.0017 259.3479 0554680 154.6433 208.3138 14.55421002634500
ZACUBE-1 (TSHEPISOSAT)  
1 39417U 13066B   26140.34342926  .00002941  00000+0  23169-3 0  9995
2 39417  97.8122 102.5296 0040864 346.3629  13.6486 15.00951329676557
WNISAT-1                
1 39423U 13066H   26140.41747911  .00000296  00000+0  63193-4 0  9996
2 39423  97.7169 291.5501 0162175 319.7579  39.1706 14.58022953662681
TRITON-1                
1 39427U 13066M   26140.53929712  .00001243  00000+0  15467-3 0  9997
2 39427  97.8266  50.9762 0089409 325.4883  34.0544 14.81573079669991
GOMX-1                  
1 39430U 13066Q   26140.53866361  .00001224  00000+0  19000-3 0  9997
2 39430  97.6495 342.7452 0129080 165.6472 194.8458 14.69336274665853
CUBEBUG-2 (LO-74)       
1 39440U 13066AA  26140.32859565  .00002498  00000+0  23488-3 0  9992
2 39440  97.8896  89.1979 0059360 118.9844 241.7343 14.93518910672831
NEE-02 KRYSAOR          
1 39441U 13066AB  26140.34243892  .00001052  00000+0  12059-3 0  9992
2 39441  97.8886  79.7609 0066682 159.7585 200.6298 14.86498349672069
FUNCUBE-1 (AO-73)       
1 39444U 13066AE  26139.88001221  .00005392  00000+0  33982-3 0  9999
2 39444  97.8266 110.7464 0034852 301.7800  58.0035 15.09086227675399
UWE-3                   
1 39446U 13066AG  26139.87297777  .00002931  00000+0  25518-3 0  9995
2 39446  97.8681  95.7656 0050416  55.1859 305.4090 14.96754231673340
BRITE-CA1 (TORONTO)     
1 40020U 14033L   26140.31618104  .00000407  00000+0  68905-4 0  9996
2 40020  97.9701 269.7647 0078725   7.1930 353.0388 14.72634211638111
DUCHIFAT-1              
1 40021U 14033M   26140.40698235  .00060331  00000+0  76680-3 0  9990
2 40021  98.0489 195.7904 0006233 167.3565 192.7847 15.59181343651414
NANOSATC-BR1            
1 40024U 14033Q   26140.49307159  .00012429  00000+0  42436-3 0  9991
2 40024  98.0738 170.4463 0001661 274.4950  85.6099 15.30482216649746
QB50P1                  
1 40025U 14033R   26140.46520314  .00005334  00000+0  26764-3 0  9992
2 40025  98.0975 149.6777 0007608 331.3081  28.7731 15.17779881648822
QB50P2                  
1 40032U 14033Y   26140.42530700  .00004223  00000+0  23169-3 0  9998
2 40032  98.0754 135.5876 0005654 269.9397  90.1185 15.14759681648463
PERSEUS-M2              
1 40037U 14033AD  26140.49620916  .00000973  00000+0  93474-4 0  9994
2 40037  97.9968  90.4786 0013167  37.6463 322.5676 14.95417546646648
